[{"OBJECT_NAME":"LYNK TOWER 6","OBJECT_ID":"2024-043AB","EPOCH":"2026-03-09T21:28:38.303328","MEAN_MOTION":15.29548678,"ECCENTRICITY":0.00097492,"INCLINATION":97.5426,"RA_OF_ASC_NODE":204.1954,"ARG_OF_PERICENTER":232.0253,"MEAN_ANOMALY":128.0107,"EPHEMERIS_TYPE":0,"CLASSIFICATION_TYPE":"U","NORAD_CAT_ID":59123,"ELEMENT_SET_NO":999,"REV_AT_EPOCH":11184,"BSTAR":0.00040142146,"MEAN_MOTION_DOT":0.0001144,"MEAN_MOTION_DDOT":0},{"OBJECT_NAME":"STARLINK-35935","OBJECT_ID":"2025-265M","EPOCH":"2026-03-09T13:46:07.527072","MEAN_MOTION":15.27613078,"ECCENTRICITY":0.0001952,"INCLINATION":43.0066,"RA_OF_ASC_NODE":278.7646,"ARG_OF_PERICENTER":251.4524,"MEAN_ANOMALY":108.6116,"EPHEMERIS_TYPE":0,"CLASSIFICATION_TYPE":"U","NORAD_CAT_ID":66527,"ELEMENT_SET_NO":999,"REV_AT_EPOCH":1709,"BSTAR":0.0023305,"MEAN_MOTION_DOT":0.00064497,"MEAN_MOTION_DDOT":0}]
